OBJECT_NAME,OBJECT_ID,EPOCH,MEAN_MOTION,ECCENTRICITY,INCLINATION,RA_OF_ASC_NODE,ARG_OF_PERICENTER,MEAN_ANOMALY,EPHEMERIS_TYPE,CLASSIFICATION_TYPE,NORAD_CAT_ID,ELEMENT_SET_NO,REV_AT_EPOCH,BSTAR,MEAN_MOTION_DOT,MEAN_MOTION_DDOT
SL-14 R/B,1990-018B,2026-06-09T10:48:39.428640,14.82211122,.0016961,82.5205,137.3390,145.5918,214.6398,0,U,20511,999,93617,.43099E-4,.368E-5,0
HST,1990-037B,2026-06-09T06:06:10.692288,15.30659901,.0001992,28.4711,134.7882,63.4353,296.6447,0,U,20580,999,78735,.15014E-3,.481E-4,0
SL-16 R/B,1990-046B,2026-06-09T05:49:39.656640,14.15022087,.0014001,70.9985,105.6321,173.6796,186.4506,0,U,20625,999,86134,.18279E-3,.307E-5,0
COSMOS 2084,1990-055A,2026-06-09T08:37:58.459296,15.06083976,.0005491,62.7911,22.8069,264.4956,95.5519,0,U,20663,999,95012,.1368E-3,.1807E-4,0
SL-6 R/B(2),1990-055D,2026-06-09T11:16:23.276640,15.03978029,.0039426,62.7837,301.6374,4.1013,356.0401,0,U,20666,999,95199,.12751E-3,.1591E-4,0
SL-8 R/B,1990-078B,2026-06-09T11:36:15.364224,14.92020167,.0352638,82.9013,168.6031,64.3906,299.3308,0,U,20775,999,82297,.46349E-3,.16473E-3,0
SL-8 R/B,1991-006B,2026-06-09T09:01:45.141888,13.77505353,.0023348,82.9421,101.8442,135.3962,346.8420,0,U,21088,999,77669,.28829E-4,.44E-6,0
OKEAN-3,1991-039A,2026-06-09T11:51:37.687680,15.05291461,.0014563,82.5161,247.8410,25.2650,334.9285,0,U,21397,999,87884,.12062E-3,.1756E-4,0
COSMOS 2151,1991-042A,2026-06-09T12:34:17.680800,15.00416186,.0013766,82.4961,355.0773,106.9366,253.3369,0,U,21422,999,87696,.9951E-4,.128E-4,0
SL-14 R/B,1991-042B,2026-06-09T09:18:29.680128,14.81897503,.0015652,82.4922,134.2096,302.9590,57.0119,0,U,21423,999,86665,.42486E-4,.36E-5,0
ERS-1,1991-050A,2026-06-09T07:27:03.318048,14.39512125,.0030768,98.7799,180.8159,291.2848,68.5055,0,U,21574,999,82891,.90805E-4,.238E-5,0
ARIANE 40 R/B,1991-050F,2026-06-09T10:06:42.046272,14.42952461,.0003923,98.1878,209.1404,138.1097,222.0395,0,U,21610,999,83222,.8564E-4,.245E-5,0
INTERCOSMOS 25,1991-086A,2026-06-09T12:26:48.238368,12.12186950,.1484294,82.6053,254.4498,278.9523,64.6952,0,U,21819,999,50781,.96089E-4,.482E-5,0
SL-8 R/B,1992-008B,2026-06-09T12:01:20.505792,13.75974804,.0033436,82.9265,199.5023,236.8225,235.5017,0,U,21876,999,72204,.81731E-4,.94E-6,0
SL-8 R/B,1992-020B,2026-06-09T08:32:14.850816,13.75548104,.0030164,82.9305,85.6740,43.8127,76.8416,0,U,21938,999,71373,.32112E-4,.46E-6,0
USA 81,1992-023A,2026-06-09T07:28:10.437024,14.32396067,.0002755,85.0077,78.5528,91.6692,268.4817,0,U,21949,999,10790,.47676E-4,.149E-5,0
COSMOS 2219,1992-076A,2026-06-09T11:31:30.334080,14.14095701,.0016237,71.0574,186.1837,56.7453,303.5223,0,U,22219,999,73135,.40313E-4,.3E-6,0
SL-16 R/B,1992-076B,2026-06-09T06:52:55.991424,14.16871712,.0014504,71.0006,355.4249,308.9703,228.2523,0,U,22220,999,73480,-.79167E-4,-.207E-5,0
COSMOS 2221,1992-080A,2026-06-09T12:23:53.693088,14.96513983,.0012736,82.5033,191.1137,240.4280,119.5673,0,U,22236,999,79452,.11111E-3,.129E-4,0
SL-16 R/B,1992-093B,2026-06-09T11:15:04.764096,14.15464528,.0004379,71.0200,171.5947,199.8381,160.2572,0,U,22285,999,72614,-.58883E-4,-.163E-5,0
COSMOS 2228,1992-094A,2026-06-09T11:17:41.834112,14.97558560,.0017697,82.5169,149.4342,358.9457,1.1725,0,U,22286,999,78979,.16034E-3,.1903E-4,0
SL-16 R/B,1993-016B,2026-06-09T07:21:39.758688,14.15309272,.0010712,71.0080,22.7597,194.9068,165.1740,0,U,22566,999,71513,.1015E-3,.15E-5,0
COSMOS 2242,1993-024A,2026-06-09T11:50:30.230016,14.96880529,.0016127,82.5179,178.9037,2.7229,357.4078,0,U,22626,999,79412,.12734E-3,.149E-4,0
SL-16 R/B,1993-059B,2026-06-09T10:39:00.305856,14.17245072,.0015023,70.9883,177.6336,67.5249,292.7464,0,U,22803,999,69253,.15608E-3,.268E-5,0
ARIANE 40 R/B,1993-061H,2026-06-09T02:31:39.794016,14.32904458,.00109783,98.4819,227.1301,20.2194,339.9423,0,U,22830,999,70719,.7466374E-4,.161E-5,0
COSMOS 2278,1994-023A,2026-06-09T06:07:33.021120,14.14393670,.0010592,71.0543,343.5215,252.2458,107.7509,0,U,23087,999,65775,.21095E-3,.357E-5,0
SL-16 R/B,1994-023B,2026-06-09T11:20:33.431424,14.15020109,.0003267,70.9995,238.1325,194.5235,165.5794,0,U,23088,999,65907,.14393E-3,.231E-5,0
SL-16 R/B,1994-074B,2026-06-09T12:25:22.214208,14.79495792,.0005125,97.6994,187.5579,285.9819,202.7354,0,U,23343,999,70082,.56932E-4,.376E-5,0
SL-16 R/B,1994-077B,2026-06-09T08:20:41.784576,14.15572918,.0002657,70.9805,159.6557,332.2037,27.8943,0,U,23405,999,62920,-.10795E-3,-.259E-5,0
ARIANE 40+ R/B,1995-021B,2026-06-09T11:17:46.986144,14.39829123,.0005953,98.4411,230.6569,218.4661,156.2932,0,U,23561,999,63245,.85755E-4,.226E-5,0
SL-16 R/B,1995-058B,2026-06-09T12:00:39.834720,14.15505194,.0013435,71.0214,347.4979,330.9060,29.1312,0,U,23705,999,58084,.21868E-4,-.5E-7,0
